NETSAT-1                
1 46506U 20068W   20324.25150527  .00000137  00000-0  15141-4 0  9992
2 46506  97.6636 257.1279 0011642  84.9492 275.3061 15.01757129  7697
NETSAT-2                
1 46507U 20068X   20324.25198933  .00000074  00000-0  10303-4 0  9991
2 46507  97.6645 257.1298 0012081  85.3792 274.8810 15.01741310  7641
